{
    "links": {
        "self": "http://www.neowsapp.com/rest/v1/neo/3781731?api_key=iIulBulltgU6a56xZRHN4H3l9WmuAYTsLGpBGhQ2"
    },
    "id": "3781731",
    "neo_reference_id": "3781731",
    "name": "(2017 SO12)",
    "designation": "2017 SO12",
    "nasa_jpl_url": "http://ssd.jpl.nasa.gov/sbdb.cgi?sstr=3781731",
    "absolute_magnitude_h": 23.5,
    "estimated_diameter": {
        "kilometers": {
            "estimated_diameter_min": 0.0530340723,
            "estimated_diameter_max": 0.1185877909
        },
        "meters": {
            "estimated_diameter_min": 53.0340723319,
            "estimated_diameter_max": 118.5877908577
        },
        "miles": {
            "estimated_diameter_min": 0.0329538346,
            "estimated_diameter_max": 0.0736870142
        },
        "feet": {
            "estimated_diameter_min": 173.9963058693,
            "estimated_diameter_max": 389.0675677576
        }
    },
    "is_potentially_hazardous_asteroid": false,
    "close_approach_data": [
        {
            "close_approach_date": "2017-09-22",
            "close_approach_date_full": "2017-Sep-22 23:52",
            "epoch_date_close_approach": 1506124320000,
            "relative_velocity": {
                "kilometers_per_second": "18.0094467383",
                "kilometers_per_hour": "64834.0082578296",
                "miles_per_hour": "40285.331408872"
            },
            "miss_distance": {
                "astronomical": "0.0926360515",
                "lunar": "36.0354240335",
                "kilometers": "13858155.989610305",
                "miles": "8611058.831840009"
            },
            "orbiting_body": "Earth"
        }
    ],
    "orbital_data": {
        "orbit_id": "2",
        "orbit_determination_date": "2017-10-08 06:22:44",
        "first_observation_date": "2017-09-23",
        "last_observation_date": "2017-09-25",
        "data_arc_in_days": 2,
        "observations_used": 16,
        "orbit_uncertainty": "9",
        "minimum_orbit_intersection": ".0541619",
        "jupiter_tisserand_invariant": "3.024",
        "epoch_osculation": "2458020.5",
        "eccentricity": ".6023512336656035",
        "semi_major_axis": "2.573234545048817",
        "inclination": "26.77077827030616",
        "ascending_node_longitude": "182.767772069732",
        "orbital_period": "1507.708858304315",
        "perihelion_distance": "1.023243542327714",
        "perihelion_argument": "204.6749644583113",
        "aphelion_distance": "4.123225547769919",
        "perihelion_time": "2458039.086424594202",
        "mean_anomaly": "355.5620657018371",
        "mean_motion": ".2387728890874088",
        "equinox": "J2000",
        "orbit_class": {
            "orbit_class_type": "AMO",
            "orbit_class_description": "Near-Earth asteroid orbits similar to that of 1221 Amor",
            "orbit_class_range": "1.017 AU < q (perihelion) < 1.3 AU"
        }
    },
    "is_sentry_object": false
}